sat05903
1 05903U 72018A   20046.75262045 -.00000003  00000-0  18650-4 0  9996
2 05903  98.9225 145.8270 0050392 266.4893  93.0521 14.24109620560828
